QZS-1R                  
1 49336U 21096A   24258.87683156 -.00000214  00000+0  00000+0 0  9994
2 49336  36.1266  89.1690 0743510 269.6655  85.4596  1.00291307 10587
